[{"OBJECT_NAME":"STARLINK-36036","OBJECT_ID":"2025-270W","EPOCH":"2026-03-09T00:05:29.727456","MEAN_MOTION":15.2758616,"ECCENTRICITY":8.05e-5,"INCLINATION":43.0011,"RA_OF_ASC_NODE":59.8195,"ARG_OF_PERICENTER":74.7687,"MEAN_ANOMALY":285.3254,"EPHEMERIS_TYPE":0,"CLASSIFICATION_TYPE":"U","NORAD_CAT_ID":66608,"ELEMENT_SET_NO":999,"REV_AT_EPOCH":1744,"BSTAR":0.00096854664,"MEAN_MOTION_DOT":0.00026491,"MEAN_MOTION_DDOT":0},{"OBJECT_NAME":"PEGASUS R\/B","OBJECT_ID":"2007-015B","EPOCH":"2026-03-09T10:58:33.801024","MEAN_MOTION":15.26741121,"ECCENTRICITY":0.00105976,"INCLINATION":97.9168,"RA_OF_ASC_NODE":31.3919,"ARG_OF_PERICENTER":317.6341,"MEAN_ANOMALY":42.4077,"EPHEMERIS_TYPE":0,"CLASSIFICATION_TYPE":"U","NORAD_CAT_ID":31305,"ELEMENT_SET_NO":999,"REV_AT_EPOCH":3383,"BSTAR":0.00044093522,"MEAN_MOTION_DOT":0.00011537,"MEAN_MOTION_DDOT":0}]
